[{"OBJECT_NAME":"GENMAT-1","OBJECT_ID":"2023-174W","EPOCH":"2026-03-09T18:03:23.351040","MEAN_MOTION":15.32594666,"ECCENTRICITY":0.00074416,"INCLINATION":97.3728,"RA_OF_ASC_NODE":146.8236,"ARG_OF_PERICENTER":169.2515,"MEAN_ANOMALY":190.8888,"EPHEMERIS_TYPE":0,"CLASSIFICATION_TYPE":"U","NORAD_CAT_ID":58276,"ELEMENT_SET_NO":999,"REV_AT_EPOCH":12973,"BSTAR":0.00042157222,"MEAN_MOTION_DOT":0.0001321,"MEAN_MOTION_DDOT":0},{"OBJECT_NAME":"STARLINK-36180","OBJECT_ID":"2025-299N","EPOCH":"2026-03-09T07:05:29.051232","MEAN_MOTION":15.28423882,"ECCENTRICITY":0.00011024,"INCLINATION":42.9978,"RA_OF_ASC_NODE":171.4194,"ARG_OF_PERICENTER":319.3332,"MEAN_ANOMALY":40.7437,"EPHEMERIS_TYPE":0,"CLASSIFICATION_TYPE":"U","NORAD_CAT_ID":67114,"ELEMENT_SET_NO":999,"REV_AT_EPOCH":1305,"BSTAR":0.00095247551,"MEAN_MOTION_DOT":0.00026728,"MEAN_MOTION_DDOT":0}]
